ONEWEB-0596             
1 54662U 22166W   25262.08521622  .00000037  00000+0  57895-4 0  9990
2 54662  87.9200 298.0898 0002040  96.3885 263.7481 13.21823751135722
ONEWEB-0597             
1 54663U 22166X   25262.06630166  .00000088  00000+0  18047-3 0  9994
2 54663  87.9204 298.0971 0001993  90.8460 269.2902 13.21824397135729
ONEWEB-0600             
1 54664U 22166Y   25262.04894955  .00000091  00000+0  18825-3 0  9999
2 54664  87.9199 298.0932 0001873  90.8898 269.2450 13.21824071135695
ONEWEB-0601             
1 54665U 22166Z   25262.04104117  .00000119  00000+0  25717-3 0  9993
2 54665  87.9198 298.1122 0002139  86.9434 273.1944 13.21823011135881
ONEWEB-0602             
1 54666U 22166AA  25262.00558707  .00000098  00000+0  20492-3 0  9999
2 54666  87.9208 298.1206 0001634  86.8655 273.2666 13.21824512135722
ONEWEB-0603             
1 54667U 22166AB  25262.01111408  .00000085  00000+0  17530-3 0  9999
2 54667  87.9203 298.0543 0001932  91.0277 269.1078 13.21825737135653
ONEWEB-0604             
1 54668U 22166AC  25262.07418391  .00000057  00000+0  10581-3 0  9995
2 54668  87.9202 298.0669 0001915  88.6548 271.4805 13.21824443135620
ONEWEB-0605             
1 54669U 22166AD  25262.06789294  .00000065  00000+0  12574-3 0  9991
2 54669  87.9202 298.0977 0002527  87.3858 272.7565 13.21828373135693
ONEWEB-0606             
1 54670U 22166AE  25261.63578381 -.00000060  00000+0 -17649-3 0  9993
2 54670  87.9202 298.1946 0001916 100.7369 259.3980 13.21824604135695
ONEWEB-0607             
1 54671U 22166AF  25262.05684143  .00000164  00000+0  36659-3 0  9990
2 54671  87.9201 298.0745 0001962  90.7627 269.3731 13.21825752135721
ONEWEB-0608             
1 54672U 22166AG  25262.06314173  .00000093  00000+0  19425-3 0  9998
2 54672  87.9195 298.0571 0002277  83.2187 276.9206 13.21824851135730
ONEWEB-0610             
1 54673U 22166AH  25262.04422616  .00000134  00000+0  29208-3 0  9995
2 54673  87.9199 298.0986 0002370  81.3527 278.7875 13.21825140135639
ONEWEB-0611             
1 54674U 22166AJ  25262.03788935  .00000105  00000+0  22315-3 0  9994
2 54674  87.9196 298.0956 0001792  99.4309 260.7028 13.21823384135627
ONEWEB-0612             
1 54675U 22166AK  25262.05053366  .00000071  00000+0  14043-3 0  9991
2 54675  87.9199 298.0711 0002020  89.3892 270.7473 13.21824244135610
ONEWEB-0615             
1 54676U 22166AL  25262.03159092  .00000114  00000+0  24437-3 0  9999
2 54676  87.9199 298.1015 0001919  93.7362 266.3991 13.21823685135621
ONEWEB-0655             
1 54677U 22166AM  25262.00480227  .00000098  00000+0  20459-3 0  9995
2 54677  87.9201 298.1115 0001762  86.9007 273.2328 13.21824664135611
