[{"OBJECT_NAME":"ONEWEB-0596","OBJECT_ID":"2022-166W","EPOCH":"2025-09-19T02:02:42.681408","MEAN_MOTION":13.21823751,"ECCENTRICITY":0.00020402,"INCLINATION":87.92,"RA_OF_ASC_NODE":298.0898,"ARG_OF_PERICENTER":96.3885,"MEAN_ANOMALY":263.7481,"EPHEMERIS_TYPE":0,"CLASSIFICATION_TYPE":"U","NORAD_CAT_ID":54662,"ELEMENT_SET_NO":999,"REV_AT_EPOCH":13572,"BSTAR":5.7895252e-5,"MEAN_MOTION_DOT":3.7e-7,"MEAN_MOTION_DDOT":0},{"OBJECT_NAME":"ONEWEB-0597","OBJECT_ID":"2022-166X","EPOCH":"2025-09-19T01:35:28.463424","MEAN_MOTION":13.21824397,"ECCENTRICITY":0.00019939,"INCLINATION":87.9204,"RA_OF_ASC_NODE":298.0971,"ARG_OF_PERICENTER":90.846,"MEAN_ANOMALY":269.2902,"EPHEMERIS_TYPE":0,"CLASSIFICATION_TYPE":"U","NORAD_CAT_ID":54663,"ELEMENT_SET_NO":999,"REV_AT_EPOCH":13572,"BSTAR":0.00018046982,"MEAN_MOTION_DOT":8.8e-7,"MEAN_MOTION_DDOT":0},{"OBJECT_NAME":"ONEWEB-0600","OBJECT_ID":"2022-166Y","EPOCH":"2025-09-19T01:10:29.241120","MEAN_MOTION":13.21824071,"ECCENTRICITY":0.00018738,"INCLINATION":87.9199,"RA_OF_ASC_NODE":298.0932,"ARG_OF_PERICENTER":90.8898,"MEAN_ANOMALY":269.245,"EPHEMERIS_TYPE":0,"CLASSIFICATION_TYPE":"U","NORAD_CAT_ID":54664,"ELEMENT_SET_NO":999,"REV_AT_EPOCH":13569,"BSTAR":0.00018825323,"MEAN_MOTION_DOT":9.1e-7,"MEAN_MOTION_DDOT":0},{"OBJECT_NAME":"ONEWEB-0601","OBJECT_ID":"2022-166Z","EPOCH":"2025-09-19T00:59:05.957088","MEAN_MOTION":13.21823011,"ECCENTRICITY":0.00021391,"INCLINATION":87.9198,"RA_OF_ASC_NODE":298.1122,"ARG_OF_PERICENTER":86.9434,"MEAN_ANOMALY":273.1944,"EPHEMERIS_TYPE":0,"CLASSIFICATION_TYPE":"U","NORAD_CAT_ID":54665,"ELEMENT_SET_NO":999,"REV_AT_EPOCH":13588,"BSTAR":0.00025717155,"MEAN_MOTION_DOT":1.19e-6,"MEAN_MOTION_DDOT":0},{"OBJECT_NAME":"ONEWEB-0602","OBJECT_ID":"2022-166AA","EPOCH":"2025-09-19T00:08:02.722848","MEAN_MOTION":13.21824512,"ECCENTRICITY":0.00016346,"INCLINATION":87.9208,"RA_OF_ASC_NODE":298.1206,"ARG_OF_PERICENTER":86.8655,"MEAN_ANOMALY":273.2666,"EPHEMERIS_TYPE":0,"CLASSIFICATION_TYPE":"U","NORAD_CAT_ID":54666,"ELEMENT_SET_NO":999,"REV_AT_EPOCH":13572,"BSTAR":0.00020491966,"MEAN_MOTION_DOT":9.8e-7,"MEAN_MOTION_DDOT":0},{"OBJECT_NAME":"ONEWEB-0603","OBJECT_ID":"2022-166AB","EPOCH":"2025-09-19T00:16:00.256512","MEAN_MOTION":13.21825737,"ECCENTRICITY":0.00019324,"INCLINATION":87.9203,"RA_OF_ASC_NODE":298.0543,"ARG_OF_PERICENTER":91.0277,"MEAN_ANOMALY":269.1078,"EPHEMERIS_TYPE":0,"CLASSIFICATION_TYPE":"U","NORAD_CAT_ID":54667,"ELEMENT_SET_NO":999,"REV_AT_EPOCH":13565,"BSTAR":0.00017530081,"MEAN_MOTION_DOT":8.5e-7,"MEAN_MOTION_DDOT":0},{"OBJECT_NAME":"ONEWEB-0604","OBJECT_ID":"2022-166AC","EPOCH":"2025-09-19T01:46:49.489824","MEAN_MOTION":13.21824443,"ECCENTRICITY":0.00019153,"INCLINATION":87.9202,"RA_OF_ASC_NODE":298.0669,"ARG_OF_PERICENTER":88.6548,"MEAN_ANOMALY":271.4805,"EPHEMERIS_TYPE":0,"CLASSIFICATION_TYPE":"U","NORAD_CAT_ID":54668,"ELEMENT_SET_NO":999,"REV_AT_EPOCH":13562,"BSTAR":0.00010580724,"MEAN_MOTION_DOT":5.7e-7,"MEAN_MOTION_DDOT":0},{"OBJECT_NAME":"ONEWEB-0605","OBJECT_ID":"2022-166AD","EPOCH":"2025-09-19T01:37:45.950016","MEAN_MOTION":13.21828373,"ECCENTRICITY":0.00025279,"INCLINATION":87.9202,"RA_OF_ASC_NODE":298.0977,"ARG_OF_PERICENTER":87.3858,"MEAN_ANOMALY":272.7565,"EPHEMERIS_TYPE":0,"CLASSIFICATION_TYPE":"U","NORAD_CAT_ID":54669,"ELEMENT_SET_NO":999,"REV_AT_EPOCH":13569,"BSTAR":0.0001257389,"MEAN_MOTION_DOT":6.5e-7,"MEAN_MOTION_DDOT":0},{"OBJECT_NAME":"ONEWEB-0606","OBJECT_ID":"2022-166AE","EPOCH":"2025-09-18T15:15:31.721184","MEAN_MOTION":13.21824604,"ECCENTRICITY":0.00019161,"INCLINATION":87.9202,"RA_OF_ASC_NODE":298.1946,"ARG_OF_PERICENTER":100.7369,"MEAN_ANOMALY":259.398,"EPHEMERIS_TYPE":0,"CLASSIFICATION_TYPE":"U","NORAD_CAT_ID":54670,"ELEMENT_SET_NO":999,"REV_AT_EPOCH":13569,"BSTAR":-0.0001764853,"MEAN_MOTION_DOT":-6.0e-7,"MEAN_MOTION_DDOT":0},{"OBJECT_NAME":"ONEWEB-0607","OBJECT_ID":"2022-166AF","EPOCH":"2025-09-19T01:21:51.099552","MEAN_MOTION":13.21825752,"ECCENTRICITY":0.00019628,"INCLINATION":87.9201,"RA_OF_ASC_NODE":298.0745,"ARG_OF_PERICENTER":90.7627,"MEAN_ANOMALY":269.3731,"EPHEMERIS_TYPE":0,"CLASSIFICATION_TYPE":"U","NORAD_CAT_ID":54671,"ELEMENT_SET_NO":999,"REV_AT_EPOCH":13572,"BSTAR":0.00036658651,"MEAN_MOTION_DOT":1.64e-6,"MEAN_MOTION_DDOT":0},{"OBJECT_NAME":"ONEWEB-0608","OBJECT_ID":"2022-166AG","EPOCH":"2025-09-19T01:30:55.445472","MEAN_MOTION":13.21824851,"ECCENTRICITY":0.00022778,"INCLINATION":87.9195,"RA_OF_ASC_NODE":298.0571,"ARG_OF_PERICENTER":83.2187,"MEAN_ANOMALY":276.9206,"EPHEMERIS_TYPE":0,"CLASSIFICATION_TYPE":"U","NORAD_CAT_ID":54672,"ELEMENT_SET_NO":999,"REV_AT_EPOCH":13573,"BSTAR":0.00019425218,"MEAN_MOTION_DOT":9.3e-7,"MEAN_MOTION_DDOT":0},{"OBJECT_NAME":"ONEWEB-0610","OBJECT_ID":"2022-166AH","EPOCH":"2025-09-19T01:03:41.140224","MEAN_MOTION":13.2182514,"ECCENTRICITY":0.00023705,"INCLINATION":87.9199,"RA_OF_ASC_NODE":298.0986,"ARG_OF_PERICENTER":81.3527,"MEAN_ANOMALY":278.7875,"EPHEMERIS_TYPE":0,"CLASSIFICATION_TYPE":"U","NORAD_CAT_ID":54673,"ELEMENT_SET_NO":999,"REV_AT_EPOCH":13563,"BSTAR":0.00029208077,"MEAN_MOTION_DOT":1.34e-6,"MEAN_MOTION_DDOT":0},{"OBJECT_NAME":"ONEWEB-0611","OBJECT_ID":"2022-166AJ","EPOCH":"2025-09-19T00:54:33.639840","MEAN_MOTION":13.21823384,"ECCENTRICITY":0.00017922,"INCLINATION":87.9196,"RA_OF_ASC_NODE":298.0956,"ARG_OF_PERICENTER":99.4309,"MEAN_ANOMALY":260.7028,"EPHEMERIS_TYPE":0,"CLASSIFICATION_TYPE":"U","NORAD_CAT_ID":54674,"ELEMENT_SET_NO":999,"REV_AT_EPOCH":13562,"BSTAR":0.00022315127,"MEAN_MOTION_DOT":1.05e-6,"MEAN_MOTION_DDOT":0},{"OBJECT_NAME":"ONEWEB-0612","OBJECT_ID":"2022-166AK","EPOCH":"2025-09-19T01:12:46.108224","MEAN_MOTION":13.21824244,"ECCENTRICITY":0.00020205,"INCLINATION":87.9199,"RA_OF_ASC_NODE":298.0711,"ARG_OF_PERICENTER":89.3892,"MEAN_ANOMALY":270.7473,"EPHEMERIS_TYPE":0,"CLASSIFICATION_TYPE":"U","NORAD_CAT_ID":54675,"ELEMENT_SET_NO":999,"REV_AT_EPOCH":13561,"BSTAR":0.00014043291,"MEAN_MOTION_DOT":7.1e-7,"MEAN_MOTION_DDOT":0},{"OBJECT_NAME":"ONEWEB-0615","OBJECT_ID":"2022-166AL","EPOCH":"2025-09-19T00:45:29.455488","MEAN_MOTION":13.21823685,"ECCENTRICITY":0.00019193,"INCLINATION":87.9199,"RA_OF_ASC_NODE":298.1015,"ARG_OF_PERICENTER":93.7362,"MEAN_ANOMALY":266.3991,"EPHEMERIS_TYPE":0,"CLASSIFICATION_TYPE":"U","NORAD_CAT_ID":54676,"ELEMENT_SET_NO":999,"REV_AT_EPOCH":13562,"BSTAR":0.00024436758,"MEAN_MOTION_DOT":1.14e-6,"MEAN_MOTION_DDOT":0},{"OBJECT_NAME":"ONEWEB-0655","OBJECT_ID":"2022-166AM","EPOCH":"2025-09-19T00:06:54.916128","MEAN_MOTION":13.21824664,"ECCENTRICITY":0.00017623,"INCLINATION":87.9201,"RA_OF_ASC_NODE":298.1115,"ARG_OF_PERICENTER":86.9007,"MEAN_ANOMALY":273.2328,"EPHEMERIS_TYPE":0,"CLASSIFICATION_TYPE":"U","NORAD_CAT_ID":54677,"ELEMENT_SET_NO":999,"REV_AT_EPOCH":13561,"BSTAR":0.00020459013,"MEAN_MOTION_DOT":9.8e-7,"MEAN_MOTION_DDOT":0}]
